CCSDS_OEM_VERS = 1.0
CREATION_DATE  = 2017-05-11T12:06:51
ORIGINATOR     = GMAT USER

META_START
OBJECT_NAME          = MOPSSat_alt_35785_km_RAAN_270_154
OBJECT_ID            = SatId
CENTER_NAME          = Earth
REF_FRAME            = EME2000
TIME_SYSTEM          = UTC
START_TIME           = 2017-01-01T00:00:00.000
USEABLE_START_TIME   = 2017-01-01T00:00:00.000
USEABLE_STOP_TIME    = 2017-01-02T00:00:00.000
STOP_TIME            = 2017-01-02T00:00:00.000
INTERPOLATION        = Lagrange
INTERPOLATION_DEGREE = 7 
META_STOP


                                                                                   

2017-01-01T03:49:10.000   3.639804132331239e+04   1.816577407149265e+04   1.270661514653559e+03   1.899198669809283e-01   3.177431593021996e+00   6.594758093127827e-03
2017-01-01T03:49:20.000   3.639992976507769e+04   1.819754301625724e+04   1.270727086666196e+03   1.877688800376100e-01   3.176357138908525e+00   6.519658199245648e-03
2017-01-01T03:49:30.000   3.640179670898051e+04   1.822930121310410e+04   1.270791908099380e+03   1.856202972134363e-01   3.175282066256376e+00   6.444642297230374e-03
2017-01-01T03:49:40.000   3.640364217902666e+04   1.826104865553323e+04   1.270855979791798e+03   1.834741152879273e-01   3.174206377709706e+00   6.369710274579737e-03
2017-01-01T03:49:50.000   3.640546619922767e+04   1.829278533772370e+04   1.270919302582329e+03   1.813303310009747e-01   3.173130075881806e+00   6.294862017407995e-03
2017-01-01T03:50:00.000   3.640726879355822e+04   1.832451125380495e+04   1.270981877308565e+03   1.791889411021315e-01   3.172053163379791e+00   6.220097412166845e-03
2017-01-01T03:50:10.000   3.640904998596620e+04   1.835622639802201e+04   1.271043704807160e+03   1.770499423393964e-01   3.170975642799062e+00   6.145416345253818e-03
2017-01-01T03:50:20.000   3.641080980034673e+04   1.838793076432317e+04   1.271104785912931e+03   1.749133314872448e-01   3.169897516737203e+00   6.070818703990993e-03
2017-01-01T03:50:30.000   3.641254826056240e+04   1.841962434666635e+04   1.271165121459557e+03   1.727791053257218e-01   3.168818787783729e+00   5.996304375895005e-03
2017-01-01T03:50:40.000   3.641426539044207e+04   1.845130713901845e+04   1.271224712279540e+03   1.706472606405709e-01   3.167739458520087e+00   5.921873248681564e-03
2017-01-01T03:50:50.000   3.641596121376730e+04   1.848297913505201e+04   1.271283559203734e+03   1.685177942434150e-01   3.166659531530146e+00   5.847525210970056e-03
2017-01-01T03:51:00.000   3.641763575429195e+04   1.851464032855417e+04   1.271341663062020e+03   1.663907029444440e-01   3.165579009386159e+00   5.773260151329953e-03
2017-01-01T03:51:10.000   3.641928903573409e+04   1.854629071326520e+04   1.271399024683035e+03   1.642659835632115e-01   3.164497894654330e+00   5.699077958657760e-03
2017-01-01T03:51:20.000   3.642092108181353e+04   1.857793028359281e+04   1.271455644895468e+03   1.621436328806706e-01   3.163416189870444e+00   5.624978520502407e-03
2017-01-01T03:51:30.000   3.642253191621424e+04   1.860955903389757e+04   1.271511524526754e+03   1.600236476871572e-01   3.162333897564281e+00   5.550961724740515e-03
2017-01-01T03:51:40.000   3.642412156259327e+04   1.864117695865462e+04   1.271566664403389e+03   1.579060247714944e-01   3.161251020254148e+00   5.477027459196012e-03
2017-01-01T03:51:50.000   3.642569004455725e+04   1.867278405204253e+04   1.271621065350111e+03   1.557907609487428e-01   3.160167560460839e+00   5.403175612609008e-03
2017-01-01T03:52:00.000   3.642723738568083e+04   1.870438030824885e+04   1.271674728190540e+03   1.536778530395026e-01   3.159083520697347e+00   5.329406073913123e-03
2017-01-01T03:52:10.000   3.642876360950540e+04   1.873596572146933e+04   1.271727653747136e+03   1.515672978700406e-01   3.157998903468852e+00   5.255718732239939e-03
2017-01-01T03:52:20.000   3.643026873952740e+04   1.876754028560566e+04   1.271779842840792e+03   1.494590922922695e-01   3.156913711283253e+00   5.182113477616552e-03
2017-01-01T03:52:30.000   3.643175279921539e+04   1.879910399467303e+04   1.271831296291424e+03   1.473532331567079e-01   3.155827946637083e+00   5.108590200021486e-03
2017-01-01T03:52:40.000   3.643321581200304e+04   1.883065684263927e+04   1.271882014917735e+03   1.452497173231685e-01   3.154741612021080e+00   5.035148789757881e-03
2017-01-01T03:52:50.000   3.643465780132225e+04   1.886219882413689e+04   1.271931999538353e+03   1.431485416132730e-01   3.153654709895712e+00   4.961789135795593e-03
2017-01-01T03:53:00.000   3.643607879056998e+04   1.889372993375075e+04   1.271981250970690e+03   1.410497028579553e-01   3.152567242715709e+00   4.888511127429719e-03
2017-01-01T03:53:10.000   3.643747880311604e+04   1.892525016617926e+04   1.272029770031208e+03   1.389531978866750e-01   3.151479212924547e+00   4.815314653903988e-03
2017-01-01T03:53:20.000   3.643885786228237e+04   1.895675951582449e+04   1.272077557534695e+03   1.368590235548898e-01   3.150390622968509e+00   4.742199605369951e-03
2017-01-01T03:53:30.000   3.644021599135914e+04   1.898825797709680e+04   1.272124614294839e+03   1.347671767235644e-01   3.149301475286316e+00   4.669165872171540e-03
2017-01-01T03:53:40.000   3.644155321360401e+04   1.901974554441407e+04   1.272170941124186e+03   1.326776542592954e-01   3.148211772309129e+00   4.596213344849436e-03
2017-01-01T03:53:50.000   3.644286955223187e+04   1.905122221190035e+04   1.272216538833793e+03   1.305904530540927e-01   3.147121516471127e+00   4.523341914831671e-03
2017-01-01T03:54:00.000   3.644416503042964e+04   1.908268797379219e+04   1.272261408233740e+03   1.285055699986067e-01   3.146030710195344e+00   4.450551473498949e-03
2017-01-01T03:54:10.000   3.644543967135003e+04   1.911414282427526e+04   1.272305550132912e+03   1.264230019929105e-01   3.144939355899393e+00   4.377841912561034e-03
2017-01-01T03:54:20.000   3.644669349814100e+04   1.914558675820595e+04   1.272348965340020e+03   1.243427458987093e-01   3.143847455970440e+00   4.305213122388291e-03
2017-01-01T03:54:30.000   3.644792653391605e+04   1.917701977038769e+04   1.272391654662573e+03   1.222647985872672e-01   3.142755012790340e+00   4.232664993684917e-03
2017-01-01T03:54:40.000   3.644913880176227e+04   1.920844185575773e+04   1.272433618907155e+03   1.201891569270096e-01   3.141662028729180e+00   4.160197417056110e-03
2017-01-01T03:54:50.000   3.645033032471866e+04   1.923985300888413e+04   1.272474858878675e+03   1.181158178169226e-01   3.140568506162703e+00   4.087810284174151e-03
2017-01-01T03:55:00.000   3.645150112579429e+04   1.927125322438093e+04   1.272515375380999e+03   1.160447781589436e-01   3.139474447457991e+00   4.015503486814486e-03
2017-01-01T03:55:10.000   3.645265122796442e+04   1.930264249681532e+04   1.272555169216808e+03   1.139760348641335e-01   3.138379854976687e+00   3.943276917071189e-03
2017-01-01T03:55:20.000   3.645378065417287e+04   1.933402082073347e+04   1.272594241187688e+03   1.119095848508418e-01   3.137284731074192e+00   3.871130467292930e-03
2017-01-01T03:55:30.000   3.645488942733194e+04   1.936538819069109e+04   1.272632592094124e+03   1.098454250427879e-01   3.136189078098564e+00   3.799064030015972e-03
2017-01-01T03:55:40.000   3.645597757032315e+04   1.939674460126469e+04   1.272670222735525e+03   1.077835523682921e-01   3.135092898390154e+00   3.727077497937319e-03
2017-01-01T03:55:50.000   3.645704510600168e+04   1.942809004716407e+04   1.272707133910380e+03   1.057239637528262e-01   3.133996194277733e+00   3.655170763654628e-03
2017-01-01T03:56:00.000   3.645809205719305e+04   1.945942452315697e+04   1.272743326416142e+03   1.036666561240198e-01   3.132898968081099e+00   3.583343719841001e-03
2017-01-01T03:56:10.000   3.645911844669347e+04   1.949074802406912e+04   1.272778801049234e+03   1.016116264116358e-01   3.131801222111122e+00   3.511596259244126e-03
2017-01-01T03:56:20.000   3.646012429727132e+04   1.952206054485840e+04   1.272813558605114e+03   9.955887154275760e-02   3.130702958667121e+00   3.439928274518281e-03
2017-01-01T03:56:30.000   3.646110963166422e+04   1.955336208050309e+04   1.272847599878158e+03   9.750838844906846e-02   3.129604180040834e+00   3.368339658478433e-03
2017-01-01T03:56:40.000   3.646207447257893e+04   1.958465262599057e+04   1.272880925661669e+03   9.546017406756951e-02   3.128504888516843e+00   3.296830304125335e-03
2017-01-01T03:56:50.000   3.646301884268905e+04   1.961593217628543e+04   1.272913536747790e+03   9.341422534275899e-02   3.127405086373663e+00   3.225400104721580e-03
2017-01-01T03:57:00.000   3.646394276463596e+04   1.964720072630511e+04   1.272945433927539e+03   9.137053922809425e-02   3.126304775884690e+00   3.154048953842672e-03
2017-01-01T03:57:10.000   3.646484626103081e+04   1.967845827101159e+04   1.272976617990880e+03   8.932911268004694e-02   3.125203959314962e+00   3.082776745169455e-03
2017-01-01T03:57:20.000   3.646572935444477e+04   1.970970480500046e+04   1.273007089726384e+03   8.728994268477638e-02   3.124102638935748e+00   3.011583373419378e-03
2017-01-01T03:57:30.000   3.646659206742159e+04   1.974094032299885e+04   1.273036849921660e+03   8.525302622574914e-02   3.123000817006948e+00   2.940468733215988e-03
2017-01-01T03:57:40.000   3.646743442247259e+04   1.977216481968010e+04   1.273065899363189e+03   8.321836029580168e-02   3.121898495783658e+00   2.869432719510072e-03
2017-01-01T03:57:50.000   3.646825644209648e+04   1.980337829038197e+04   1.273094238837003e+03   8.118594185030872e-02   3.120795677490858e+00   2.798475225944620e-03
2017-01-01T03:58:00.000   3.646905814875957e+04   1.983458073039002e+04   1.273121869128002e+03   7.915576785391028e-02   3.119692364348702e+00   2.727596146486212e-03
2017-01-01T03:58:10.000   3.646983956490070e+04   1.986577213510001e+04   1.273148791020125e+03   7.712783526987772e-02   3.118588558566838e+00   2.656795375053752e-03
